{
    "links": {
        "self": "http://www.neowsapp.com/rest/v1/neo/3363347?api_key=iIulBulltgU6a56xZRHN4H3l9WmuAYTsLGpBGhQ2"
    },
    "id": "3363347",
    "neo_reference_id": "3363347",
    "name": "(2006 XX)",
    "designation": "2006 XX",
    "nasa_jpl_url": "http://ssd.jpl.nasa.gov/sbdb.cgi?sstr=3363347",
    "absolute_magnitude_h": 23.4,
    "estimated_diameter": {
        "kilometers": {
            "estimated_diameter_min": 0.0555334912,
            "estimated_diameter_max": 0.1241766613
        },
        "meters": {
            "estimated_diameter_min": 55.5334911581,
            "estimated_diameter_max": 124.1766612574
        },
        "miles": {
            "estimated_diameter_min": 0.0345069009,
            "estimated_diameter_max": 0.0771597762
        },
        "feet": {
            "estimated_diameter_min": 182.1964991311,
            "estimated_diameter_max": 407.4037573197
        }
    },
    "is_potentially_hazardous_asteroid": false,
    "close_approach_data": [
        {
            "close_approach_date": "2002-10-19",
            "close_approach_date_full": "2002-Oct-19 00:50",
            "epoch_date_close_approach": 1034988600000,
            "relative_velocity": {
                "kilometers_per_second": "12.8804221339",
                "kilometers_per_hour": "46369.5196819748",
                "miles_per_hour": "28812.2162712804"
            },
            "miss_distance": {
                "astronomical": "0.2685409517",
                "lunar": "104.4624302113",
                "kilometers": "40173154.382092879",
                "miles": "24962440.6092805702"
            },
            "orbiting_body": "Earth"
        },
        {
            "close_approach_date": "2006-11-22",
            "close_approach_date_full": "2006-Nov-22 11:23",
            "epoch_date_close_approach": 1164194580000,
            "relative_velocity": {
                "kilometers_per_second": "6.8370987987",
                "kilometers_per_hour": "24613.5556754051",
                "miles_per_hour": "15293.9063028649"
            },
            "miss_distance": {
                "astronomical": "0.0809413694",
                "lunar": "31.4861926966",
                "kilometers": "12108656.457123178",
                "miles": "7523970.2313207364"
            },
            "orbiting_body": "Earth"
        },
        {
            "close_approach_date": "2010-12-21",
            "close_approach_date_full": "2010-Dec-21 04:52",
            "epoch_date_close_approach": 1292907120000,
            "relative_velocity": {
                "kilometers_per_second": "12.6983518086",
                "kilometers_per_hour": "45714.0665108344",
                "miles_per_hour": "28404.9431605793"
            },
            "miss_distance": {
                "astronomical": "0.2419928986",
                "lunar": "94.1352375554",
                "kilometers": "36201622.185685982",
                "miles": "22494644.9356392716"
            },
            "orbiting_body": "Earth"
        }
    ],
    "orbital_data": {
        "orbit_id": "14",
        "orbit_determination_date": "2017-04-06 09:07:26",
        "first_observation_date": "2006-12-10",
        "last_observation_date": "2007-01-09",
        "data_arc_in_days": 30,
        "observations_used": 32,
        "orbit_uncertainty": "7",
        "minimum_orbit_intersection": ".0785157",
        "jupiter_tisserand_invariant": "3.181",
        "epoch_osculation": "2459000.5",
        "eccentricity": ".5828512668376628",
        "semi_major_axis": "2.537305409472037",
        "inclination": "5.242192308446004",
        "ascending_node_longitude": "81.25920103046242",
        "orbital_period": "1476.241958573142",
        "perihelion_distance": "1.058433737207205",
        "perihelion_argument": "337.5096797035058",
        "aphelion_distance": "4.016177081736868",
        "perihelion_time": "2458491.812030834765",
        "mean_anomaly": "124.0499010585543",
        "mean_motion": ".2438624629989227",
        "equinox": "J2000",
        "orbit_class": {
            "orbit_class_type": "AMO",
            "orbit_class_description": "Near-Earth asteroid orbits similar to that of 1221 Amor",
            "orbit_class_range": "1.017 AU < q (perihelion) < 1.3 AU"
        }
    },
    "is_sentry_object": false
}